STARLINK-1008           
1 44714U 19074B   26068.90227251  .00000312  00000+0  22205-4 0  9991
2 44714  53.1585 177.7624 0001383  87.0743 273.0417 15.31032325348900
JINJUSAT-1B             
1 63210U 25052A   26068.66363707  .00019955  00000+0  68430-3 0  9998
2 63210  97.4113 325.4613 0005550  82.1930 277.9941 15.30194857 54866
