[{"OBJECT_NAME":"STARLINK-1008","OBJECT_ID":"2019-074B","EPOCH":"2026-03-09T21:39:16.345728","MEAN_MOTION":15.31032325,"ECCENTRICITY":0.00013832,"INCLINATION":53.1585,"RA_OF_ASC_NODE":177.7624,"ARG_OF_PERICENTER":87.0743,"MEAN_ANOMALY":273.0417,"EPHEMERIS_TYPE":0,"CLASSIFICATION_TYPE":"U","NORAD_CAT_ID":44714,"ELEMENT_SET_NO":999,"REV_AT_EPOCH":34890,"BSTAR":2.2205318e-5,"MEAN_MOTION_DOT":3.12e-6,"MEAN_MOTION_DDOT":0},{"OBJECT_NAME":"JINJUSAT-1B","OBJECT_ID":"2025-052A","EPOCH":"2026-03-09T15:55:38.242848","MEAN_MOTION":15.30194857,"ECCENTRICITY":0.00055504,"INCLINATION":97.4113,"RA_OF_ASC_NODE":325.4613,"ARG_OF_PERICENTER":82.193,"MEAN_ANOMALY":277.9941,"EPHEMERIS_TYPE":0,"CLASSIFICATION_TYPE":"U","NORAD_CAT_ID":63210,"ELEMENT_SET_NO":999,"REV_AT_EPOCH":5486,"BSTAR":0.00068430401,"MEAN_MOTION_DOT":0.00019955,"MEAN_MOTION_DDOT":0}]
